[{"OBJECT_NAME":"ONEWEB-0273","OBJECT_ID":"2021-060AA","EPOCH":"2026-03-10T11:52:59.237184","MEAN_MOTION":13.16594241,"ECCENTRICITY":0.0001774,"INCLINATION":87.9006,"RA_OF_ASC_NODE":248.4118,"ARG_OF_PERICENTER":99.9658,"MEAN_ANOMALY":260.1673,"EPHEMERIS_TYPE":0,"CLASSIFICATION_TYPE":"U","NORAD_CAT_ID":48991,"ELEMENT_SET_NO":999,"REV_AT_EPOCH":22660,"BSTAR":0.00023547,"MEAN_MOTION_DOT":1.03e-6,"MEAN_MOTION_DDOT":0},{"OBJECT_NAME":"ONEWEB-0274","OBJECT_ID":"2021-060AB","EPOCH":"2026-03-10T12:29:27.939264","MEAN_MOTION":13.16593471,"ECCENTRICITY":0.0001345,"INCLINATION":87.8995,"RA_OF_ASC_NODE":248.4197,"ARG_OF_PERICENTER":104.2852,"MEAN_ANOMALY":255.8428,"EPHEMERIS_TYPE":0,"CLASSIFICATION_TYPE":"U","NORAD_CAT_ID":48992,"ELEMENT_SET_NO":999,"REV_AT_EPOCH":22664,"BSTAR":-5.0948e-5,"MEAN_MOTION_DOT":-7.0e-8,"MEAN_MOTION_DDOT":0},{"OBJECT_NAME":"ONEWEB-0275","OBJECT_ID":"2021-060AC","EPOCH":"2026-03-10T12:13:30.227232","MEAN_MOTION":13.16593797,"ECCENTRICITY":0.0001599,"INCLINATION":87.9004,"RA_OF_ASC_NODE":248.4014,"ARG_OF_PERICENTER":99.4795,"MEAN_ANOMALY":260.6517,"EPHEMERIS_TYPE":0,"CLASSIFICATION_TYPE":"U","NORAD_CAT_ID":48993,"ELEMENT_SET_NO":999,"REV_AT_EPOCH":22657,"BSTAR":0.00010261,"MEAN_MOTION_DOT":5.2e-7,"MEAN_MOTION_DDOT":0},{"OBJECT_NAME":"ONEWEB-0276","OBJECT_ID":"2021-060AD","EPOCH":"2026-03-10T11:11:57.123168","MEAN_MOTION":13.16593266,"ECCENTRICITY":0.0001808,"INCLINATION":87.9005,"RA_OF_ASC_NODE":248.4101,"ARG_OF_PERICENTER":95.1253,"MEAN_ANOMALY":265.0084,"EPHEMERIS_TYPE":0,"CLASSIFICATION_TYPE":"U","NORAD_CAT_ID":48994,"ELEMENT_SET_NO":999,"REV_AT_EPOCH":22658,"BSTAR":9.9208e-5,"MEAN_MOTION_DOT":5.1e-7,"MEAN_MOTION_DDOT":0},{"OBJECT_NAME":"ONEWEB-0277","OBJECT_ID":"2021-060AE","EPOCH":"2026-03-10T11:30:10.388160","MEAN_MOTION":13.16594384,"ECCENTRICITY":0.0001702,"INCLINATION":87.8994,"RA_OF_ASC_NODE":248.4232,"ARG_OF_PERICENTER":97.9958,"MEAN_ANOMALY":262.1366,"EPHEMERIS_TYPE":0,"CLASSIFICATION_TYPE":"U","NORAD_CAT_ID":48995,"ELEMENT_SET_NO":999,"REV_AT_EPOCH":22657,"BSTAR":0.00014748,"MEAN_MOTION_DOT":6.9e-7,"MEAN_MOTION_DDOT":0},{"OBJECT_NAME":"ONEWEB-0278","OBJECT_ID":"2021-060AF","EPOCH":"2026-03-10T11:16:30.137664","MEAN_MOTION":13.16593533,"ECCENTRICITY":0.0001701,"INCLINATION":87.9007,"RA_OF_ASC_NODE":248.4064,"ARG_OF_PERICENTER":88.0835,"MEAN_ANOMALY":272.0491,"EPHEMERIS_TYPE":0,"CLASSIFICATION_TYPE":"U","NORAD_CAT_ID":48996,"ELEMENT_SET_NO":999,"REV_AT_EPOCH":22670,"BSTAR":0.00011587,"MEAN_MOTION_DOT":5.7e-7,"MEAN_MOTION_DDOT":0},{"OBJECT_NAME":"ONEWEB-0279","OBJECT_ID":"2021-060AG","EPOCH":"2026-03-10T11:27:54.377280","MEAN_MOTION":13.16593334,"ECCENTRICITY":0.0001638,"INCLINATION":87.9007,"RA_OF_ASC_NODE":248.4037,"ARG_OF_PERICENTER":104.2441,"MEAN_ANOMALY":255.8871,"EPHEMERIS_TYPE":0,"CLASSIFICATION_TYPE":"U","NORAD_CAT_ID":48997,"ELEMENT_SET_NO":999,"REV_AT_EPOCH":22663,"BSTAR":0.00048671,"MEAN_MOTION_DOT":1.99e-6,"MEAN_MOTION_DDOT":0},{"OBJECT_NAME":"ONEWEB-0280","OBJECT_ID":"2021-060AH","EPOCH":"2026-03-10T11:49:34.481280","MEAN_MOTION":13.1659458,"ECCENTRICITY":0.000199,"INCLINATION":87.9007,"RA_OF_ASC_NODE":248.4059,"ARG_OF_PERICENTER":94.1689,"MEAN_ANOMALY":265.9669,"EPHEMERIS_TYPE":0,"CLASSIFICATION_TYPE":"U","NORAD_CAT_ID":48998,"ELEMENT_SET_NO":999,"REV_AT_EPOCH":22657,"BSTAR":0.00019394,"MEAN_MOTION_DOT":8.7e-7,"MEAN_MOTION_DDOT":0},{"OBJECT_NAME":"ONEWEB-0281","OBJECT_ID":"2021-060AJ","EPOCH":"2026-03-10T11:57:32.794272","MEAN_MOTION":13.16593958,"ECCENTRICITY":0.0001518,"INCLINATION":87.9004,"RA_OF_ASC_NODE":248.399,"ARG_OF_PERICENTER":96.8658,"MEAN_ANOMALY":263.2646,"EPHEMERIS_TYPE":0,"CLASSIFICATION_TYPE":"U","NORAD_CAT_ID":48999,"ELEMENT_SET_NO":999,"REV_AT_EPOCH":22664,"BSTAR":8.0988e-5,"MEAN_MOTION_DOT":4.4e-7,"MEAN_MOTION_DDOT":0},{"OBJECT_NAME":"ONEWEB-0282","OBJECT_ID":"2021-060AK","EPOCH":"2026-03-10T12:40:51.760704","MEAN_MOTION":13.16593283,"ECCENTRICITY":0.000176,"INCLINATION":87.9004,"RA_OF_ASC_NODE":248.4035,"ARG_OF_PERICENTER":99.1793,"MEAN_ANOMALY":260.9537,"EPHEMERIS_TYPE":0,"CLASSIFICATION_TYPE":"U","NORAD_CAT_ID":49000,"ELEMENT_SET_NO":999,"REV_AT_EPOCH":22662,"BSTAR":-0.00022672,"MEAN_MOTION_DOT":-7.4e-7,"MEAN_MOTION_DDOT":0},{"OBJECT_NAME":"ONEWEB-0283","OBJECT_ID":"2021-060AL","EPOCH":"2026-03-10T12:24:54.024480","MEAN_MOTION":13.1659365,"ECCENTRICITY":0.0001648,"INCLINATION":87.9005,"RA_OF_ASC_NODE":248.4062,"ARG_OF_PERICENTER":101.3152,"MEAN_ANOMALY":258.8164,"EPHEMERIS_TYPE":0,"CLASSIFICATION_TYPE":"U","NORAD_CAT_ID":49001,"ELEMENT_SET_NO":999,"REV_AT_EPOCH":22663,"BSTAR":-2.9508e-5,"MEAN_MOTION_DOT":2.0e-8,"MEAN_MOTION_DDOT":0},{"OBJECT_NAME":"ONEWEB-0284","OBJECT_ID":"2021-060AM","EPOCH":"2026-03-10T12:15:47.515104","MEAN_MOTION":13.16594371,"ECCENTRICITY":0.0001962,"INCLINATION":87.9007,"RA_OF_ASC_NODE":248.3985,"ARG_OF_PERICENTER":90.5626,"MEAN_ANOMALY":269.573,"EPHEMERIS_TYPE":0,"CLASSIFICATION_TYPE":"U","NORAD_CAT_ID":49002,"ELEMENT_SET_NO":999,"REV_AT_EPOCH":22661,"BSTAR":2.4618e-5,"MEAN_MOTION_DOT":2.2e-7,"MEAN_MOTION_DDOT":0},{"OBJECT_NAME":"ONEWEB-0285","OBJECT_ID":"2021-075A","EPOCH":"2026-03-10T07:59:42.819936","MEAN_MOTION":13.12443462,"ECCENTRICITY":0.0001855,"INCLINATION":87.9003,"RA_OF_ASC_NODE":10.2806,"ARG_OF_PERICENTER":80.5014,"MEAN_ANOMALY":279.6324,"EPHEMERIS_TYPE":0,"CLASSIFICATION_TYPE":"U","NORAD_CAT_ID":49075,"ELEMENT_SET_NO":999,"REV_AT_EPOCH":22224,"BSTAR":-0.00031512,"MEAN_MOTION_DOT":-1.01e-6,"MEAN_MOTION_DDOT":0},{"OBJECT_NAME":"ONEWEB-0286","OBJECT_ID":"2021-075B","EPOCH":"2026-03-10T07:33:54.525888","MEAN_MOTION":13.12442869,"ECCENTRICITY":0.0001687,"INCLINATION":87.8994,"RA_OF_ASC_NODE":10.3107,"ARG_OF_PERICENTER":72.9389,"MEAN_ANOMALY":287.1924,"EPHEMERIS_TYPE":0,"CLASSIFICATION_TYPE":"U","NORAD_CAT_ID":49076,"ELEMENT_SET_NO":999,"REV_AT_EPOCH":22159,"BSTAR":-0.00096831,"MEAN_MOTION_DOT":-3.36e-6,"MEAN_MOTION_DDOT":0},{"OBJECT_NAME":"ONEWEB-0287","OBJECT_ID":"2021-075C","EPOCH":"2026-03-10T08:58:07.692960","MEAN_MOTION":13.17648336,"ECCENTRICITY":0.0001805,"INCLINATION":87.9153,"RA_OF_ASC_NODE":25.4879,"ARG_OF_PERICENTER":66.3735,"MEAN_ANOMALY":293.7586,"EPHEMERIS_TYPE":0,"CLASSIFICATION_TYPE":"U","NORAD_CAT_ID":49077,"ELEMENT_SET_NO":999,"REV_AT_EPOCH":22061,"BSTAR":2.4542e-5,"MEAN_MOTION_DOT":2.2e-7,"MEAN_MOTION_DDOT":0},{"OBJECT_NAME":"ONEWEB-0288","OBJECT_ID":"2021-075D","EPOCH":"2026-03-10T08:49:44.960736","MEAN_MOTION":13.12441838,"ECCENTRICITY":0.0001881,"INCLINATION":87.9004,"RA_OF_ASC_NODE":10.2682,"ARG_OF_PERICENTER":77.8875,"MEAN_ANOMALY":282.2464,"EPHEMERIS_TYPE":0,"CLASSIFICATION_TYPE":"U","NORAD_CAT_ID":49078,"ELEMENT_SET_NO":999,"REV_AT_EPOCH":22222,"BSTAR":0.0010445,"MEAN_MOTION_DOT":3.88e-6,"MEAN_MOTION_DDOT":0},{"OBJECT_NAME":"ONEWEB-0289","OBJECT_ID":"2021-075E","EPOCH":"2026-03-10T09:53:48.474240","MEAN_MOTION":13.1764784,"ECCENTRICITY":0.0002268,"INCLINATION":87.9158,"RA_OF_ASC_NODE":25.4926,"ARG_OF_PERICENTER":81.7823,"MEAN_ANOMALY":278.3566,"EPHEMERIS_TYPE":0,"CLASSIFICATION_TYPE":"U","NORAD_CAT_ID":49079,"ELEMENT_SET_NO":999,"REV_AT_EPOCH":22119,"BSTAR":-4.0965e-6,"MEAN_MOTION_DOT":1.1e-7,"MEAN_MOTION_DDOT":0}]
