ONEWEB-0273             
1 48991U 21060AA  26069.49513006  .00000103  00000+0  23547-3 0  9998
2 48991  87.9006 248.4118 0001774  99.9658 260.1673 13.16594241226603
ONEWEB-0274             
1 48992U 21060AB  26069.52046226 -.00000007  00000+0 -50948-4 0  9999
2 48992  87.8995 248.4197 0001345 104.2852 255.8428 13.16593471226644
ONEWEB-0275             
1 48993U 21060AC  26069.50937763  .00000052  00000+0  10261-3 0  9994
2 48993  87.9004 248.4014 0001599  99.4795 260.6517 13.16593797226573
ONEWEB-0276             
1 48994U 21060AD  26069.46663337  .00000051  00000+0  99208-4 0  9991
2 48994  87.9005 248.4101 0001808  95.1253 265.0084 13.16593266226587
ONEWEB-0277             
1 48995U 21060AE  26069.47928690  .00000069  00000+0  14748-3 0  9993
2 48995  87.8994 248.4232 0001702  97.9958 262.1366 13.16594384226576
ONEWEB-0278             
1 48996U 21060AF  26069.46979326  .00000057  00000+0  11587-3 0  9990
2 48996  87.9007 248.4064 0001701  88.0835 272.0491 13.16593533226709
ONEWEB-0279             
1 48997U 21060AG  26069.47771270  .00000199  00000+0  48671-3 0  9991
2 48997  87.9007 248.4037 0001638 104.2441 255.8871 13.16593334226635
ONEWEB-0280             
1 48998U 21060AH  26069.49276020  .00000087  00000+0  19394-3 0  9993
2 48998  87.9007 248.4059 0001990  94.1689 265.9669 13.16594580226576
ONEWEB-0281             
1 48999U 21060AJ  26069.49829623  .00000044  00000+0  80988-4 0  9998
2 48999  87.9004 248.3990 0001518  96.8658 263.2646 13.16593958226640
ONEWEB-0282             
1 49000U 21060AK  26069.52837686 -.00000074  00000+0 -22672-3 0  9994
2 49000  87.9004 248.4035 0001760  99.1793 260.9537 13.16593283226622
ONEWEB-0283             
1 49001U 21060AL  26069.51729195  .00000002  00000+0 -29508-4 0  9995
2 49001  87.9005 248.4062 0001648 101.3152 258.8164 13.16593650226635
ONEWEB-0284             
1 49002U 21060AM  26069.51096661  .00000022  00000+0  24618-4 0  9999
2 49002  87.9007 248.3985 0001962  90.5626 269.5730 13.16594371226612
ONEWEB-0285             
1 49075U 21075A   26069.33313449 -.00000101  00000+0 -31512-3 0  9991
2 49075  87.9003  10.2806 0001855  80.5014 279.6324 13.12443462222243
ONEWEB-0286             
1 49076U 21075B   26069.31521442 -.00000336  00000+0 -96831-3 0  9999
2 49076  87.8994  10.3107 0001687  72.9389 287.1924 13.12442869221597
ONEWEB-0287             
1 49077U 21075C   26069.37370015  .00000022  00000+0  24542-4 0  9995
2 49077  87.9153  25.4879 0001805  66.3735 293.7586 13.17648336220614
ONEWEB-0288             
1 49078U 21075D   26069.36788149  .00000388  00000+0  10445-2 0  9996
2 49078  87.9004  10.2682 0001881  77.8875 282.2464 13.12441838222220
ONEWEB-0289             
1 49079U 21075E   26069.41236660  .00000011  00000+0 -40965-5 0  9996
2 49079  87.9158  25.4926 0002268  81.7823 278.3566 13.17647840221197
